[{"OBJECT_NAME":"STARLINK-31852","OBJECT_ID":"2024-097G","EPOCH":"2026-03-09T13:01:45.924960","MEAN_MOTION":15.27576223,"ECCENTRICITY":0.00013694,"INCLINATION":43.0008,"RA_OF_ASC_NODE":267.4595,"ARG_OF_PERICENTER":258.3775,"MEAN_ANOMALY":101.6923,"EPHEMERIS_TYPE":0,"CLASSIFICATION_TYPE":"U","NORAD_CAT_ID":59841,"ELEMENT_SET_NO":999,"REV_AT_EPOCH":10198,"BSTAR":-1.3423639e-5,"MEAN_MOTION_DOT":-6.31e-6,"MEAN_MOTION_DDOT":0},{"OBJECT_NAME":"FLOCK 4G-12","OBJECT_ID":"2025-009S","EPOCH":"2026-03-09T17:16:21.445824","MEAN_MOTION":15.27059194,"ECCENTRICITY":0.00028933,"INCLINATION":97.4059,"RA_OF_ASC_NODE":151.1894,"ARG_OF_PERICENTER":310.1775,"MEAN_ANOMALY":49.9211,"EPHEMERIS_TYPE":0,"CLASSIFICATION_TYPE":"U","NORAD_CAT_ID":62625,"ELEMENT_SET_NO":999,"REV_AT_EPOCH":6371,"BSTAR":0.00043519262,"MEAN_MOTION_DOT":0.00011487,"MEAN_MOTION_DDOT":0}]
